1 39383U 13064D   15335.86245724 +.00036432 +00000-0 +52419-3 0  9997
2 39383 040.4945 160.2445 0006005 028.5868 331.5281 15.55270070112148
1 39383U 13064D   15336.88979684  .00033045  00000-0  47480-3 0  9998
2 39383  40.4947 153.9504 0005804  36.6977 323.4240 15.55342613114197
1 39383U 13064D   15336.88979684 +.00033045 +00000-0 +47480-3 0  9998
2 39383 040.4947 153.9504 0005804 036.6977 323.4240 15.55342613112308
1 39383U 13064D   15337.85288485 +.00031411 +00000-0 +45055-3 0  9999
2 39383 040.4947 148.0494 0005673 044.6659 315.4618 15.55407164112450
1 39383U 13064D   15338.81593543  .00032129  00000-0  45971-3 0  9994
2 39383  40.4946 142.1480 0005567  53.0359 307.0971 15.55467403114499
1 39383U 13064D   15339.77894716 +.00040249 +00000-0 +57282-3 0  9996
2 39383 040.4946 136.2462 0005438 061.2108 298.9259 15.55536489112758
1 39383U 13064D   15340.48512776  .00040203  00000-0  57108-3 0  9996
2 39383  40.4946 131.9176 0005353  67.3997 292.7390 15.55589099114756
1 39383U 13064D   15340.74191381 +.00045476 +00000-0 +64442-3 0  9996
2 39383 040.4947 130.3438 0005316 069.3122 290.8268 15.55614617112905
1 39383U 13064D   15341.51224987  .00043883  00000-0  62063-3 0  9998
2 39383  40.4946 125.6213 0005265  76.3157 283.8249 15.55679809114919
1 39383U 13064D   15341.83321363 +.00042606 +00000-0 +60219-3 0  9992
2 39383 040.4946 123.6536 0005263 079.0410 281.1003 15.55706440113072
1 39383U 13064D   15342.79607215  .00037395  00000-0  52791-3 0  9996
2 39383  40.4947 117.7508 0005243  87.5331 272.6090 15.55781686115113
1 39383U 13064D   15343.75888523 +.00035818 +00000-0 +50459-3 0  9993
2 39383 040.4951 111.8474 0005216 095.9755 264.1661 15.55852910113373
1 39383U 13064D   15344.72165187  .00049874  00000-0  69755-3 0  9991
2 39383  40.4955 105.9436 0005246 104.4334 255.7070 15.55939119115415
1 39383U 13064D   15345.68436408  .00045956  00000-0  64133-3 0  9996
2 39383  40.4957 100.0395 0005302 113.0094 247.1286 15.56025241115562
1 39383U 13064D   15346.64702005 +.00045620 +00000-0 +63455-3 0  9996
2 39383 040.4957 094.1352 0005379 121.1696 238.9653 15.56115639113824
1 39383U 13064D   15347.35293218  .00046811  00000-0  64932-3 0  9990
2 39383  40.4958  89.8049 0005425 127.4685 232.6630 15.56181490115824
1 39383U 13064D   15347.67379201 +.00042984 +00000-0 +59628-3 0  9995
2 39383 040.4962 087.8372 0005345 129.6455 230.4838 15.56207734113987
1 39383U 13064D   15348.31549459  .00040123  00000-0  55595-3 0  9993
2 39383  40.4961  83.9002 0005446 135.1868 224.9393 15.56260571115978
1 39383U 13064D   15348.63633756 +.00040166 +00000-0 +55597-3 0  9991
2 39383 040.4961 081.9319 0005496 137.5787 222.5459 15.56287752114132
1 39383U 13064D   15349.59882394  .00053624  00000-0  73666-3 0  9991
2 39383  40.4960  76.0261 0005662 145.3503 214.7688 15.56396729116178
1 39383U 13064D   15350.62540379  .00044579  00000-0  61139-3 0  9992
2 39383  40.4959  69.7257 0005785 153.7559 206.3556 15.56500646116334
1 39383U 13064D   15351.58776502 +.00040258 +00000-0 +55108-3 0  9996
2 39383 040.4960 063.8181 0005978 162.1182 197.9850 15.56583534114592
1 39383U 13064D   15352.55007605  .00041470  00000-0  56570-3 0  9996
2 39383  40.4972  57.9097 0006160 169.9946 190.0998 15.56666035116634
1 39383U 13064D   15353.57648742  .00039610  00000-0  53891-3 0  9998
2 39383  40.4961  51.6094 0006266 175.2856 184.8025 15.56750583116798
1 39383U 13064D   15354.47454837  .00053908  00000-0  72826-3 0  9993
2 39383  40.4963  46.0951 0006419 181.7163 178.3637 15.56839784116937
1 39383U 13064D   15354.53869351 +.00053984 +00000-0 +72908-3 0  9996
2 39383 040.4964 045.7013 0006428 182.1463 177.9331 15.56846534115050
1 39383U 13064D   15355.18012047  .00064488  00000-0  86595-3 0  9998
2 39383  40.4966  41.7621 0006525 186.6712 173.4023 15.56941533117042
1 39383U 13064D   15356.14217773  .00049256  00000-0  65998-3 0  9998
2 39383  40.4965  35.8530 0006681 192.9398 167.1252 15.57086433117197
1 39383U 13064D   15356.46284724 +.00044183 +00000-0 +59196-3 0  9990
2 39383 040.4965 033.8834 0006824 194.7328 165.3295 15.57122928115357
1 39383U 13064D   15357.16829965  .00040916  00000-0  54728-3 0  9996
2 39383  40.4964  29.5498 0006832 199.4625 160.5936 15.57192067117357
1 39383U 13064D   15358.45086301  .00056868  00000-0  75403-3 0  9994
2 39383  40.4964  21.6691 0007072 207.5028 152.5420 15.57317087117552
1 39383U 13064D   15359.09210670  .00042836  00000-0  56865-3 0  9994
2 39383  40.4962  17.7288 0007082 211.5407 148.4990 15.57376748117651
1 39383U 13064D   15359.41271918 +.00054176 +00000-0 +71635-3 0  9994
2 39383 040.4961 015.7580 0007213 213.0482 146.9889 15.57405446115813
1 39383U 13064D   15360.11804771  .00040499  00000-0  53626-3 0  9995
2 39383  40.4961  11.4226 0007231 217.7331 142.2984 15.57461642117814
1 39383U 13064D   15360.37452393 +.00043301 +00000-0 +57237-3 0  9999
2 39383 040.4962 009.8463 0007256 219.3886 140.6408 15.57485995115963
1 39383U 13064D   15361.40039483  .00047006  00000-0  61866-3 0  9994
2 39383  40.4964   3.5399 0007405 225.4090 134.6128 15.57573416118012
1 39383U 13064D   15362.04153560  .00037784  00000-0  49774-3 0  9994
2 39383  40.4963 359.5981 0007498 229.0662 130.9511 15.57619731118116
1 39383U 13064D   15362.36209804 +.00036194 +00000-0 +47660-3 0  9998
2 39383 040.4964 357.6274 0007514 230.8456 129.1698 15.57644646116275
1 39383U 13064D   15363.06731834  .00034363  00000-0  45191-3 0  9992
2 39383  40.4964 353.2915 0007595 234.8189 125.1922 15.57696127118274
1 39383U 13064D   15363.32375612 +.00035459 +00000-0 +46578-3 0  9996
2 39383 040.4964 351.7148 0007618 236.1522 123.8575 15.57716465116429
1 39383U 13064D   15364.34947874  .00035863  00000-0  46971-3 0  9990
2 39383  40.4966 345.4078 0007716 242.0671 117.9370 15.57789023118477
1 39383U 13064D   15365.31105102 +.00041181 +00000-0 +53701-3 0  9997
2 39383 040.4965 339.4945 0007773 247.3503 112.6496 15.57859584116735
1 39383U 13064D   16001.27257271  .00059167  00000-0  76523-3 0  9995
2 39383  40.4964 333.5810 0007796 252.6239 107.3730 15.57960362118775
1 39383U 13064D   16001.97764443  .00037009  00000-0  48021-3 0  9999
2 39383  40.4961 329.2441 0007778 256.6576 103.3379 15.58027062118881
1 39383U 13064D   16002.29812046  .00035880  00000-0  46516-3 0  9990
2 39383  40.4961 327.2727 0007795 258.3957 101.5990 15.58060210118934
1 39383U 13064D   16002.93905720 +.00034452 +00000-0 +44598-3 0  9995
2 39383 040.4961 323.3294 0007822 261.9549 098.0385 15.58113261117143
1 39383U 13064D   16003.25951789  .00034116  00000-0  44127-3 0  9992
2 39383  40.4960 321.3577 0007804 263.5621  96.4312 15.58138610119085
1 39383U 13064D   16003.90042593 +.00035536 +00000-0 +45859-3 0  9998
2 39383 040.4959 317.4141 0007800 266.9901 093.0028 15.58184891117290
1 39383U 13064D   16004.92583946  .00034144  00000-0  43967-3 0  9995
2 39383  40.4958 311.1043 0007748 272.6462  87.3472 15.58256906119342
1 39383U 13064D   16004.92583946 +.00034144 +00000-0 +43967-3 0  9995
2 39383 040.4958 311.1043 0007748 272.6462 087.3472 15.58256906117452
1 39383U 13064D   16005.82303872 +.00033594 +00000-0 +43171-3 0  9998
2 39383 040.4958 305.5829 0007725 277.5140 082.4804 15.58316865117594
1 39383U 13064D   16007.80955985  .00039864  00000-0  50821-3 0  9992
2 39383  40.4958 293.3555 0007515 287.7284  72.2717 15.58472745119797
1 39383U 13064D   16007.93771539 +.00039147 +00000-0 +49899-3 0  9994
2 39383 040.4959 292.5667 0007494 288.3262 071.6744 15.58483244117924
1 39383U 13064D   16008.19402402 +.00039593 +00000-0 +50420-3 0  9990
2 39383 040.4958 290.9891 0007464 290.0875 069.9143 15.58504564117967
1 39383U 13064D   16009.15515071  .00034922  00000-0  44416-3 0  9993
2 39383  40.4958 285.0726 0007414 295.5142  64.4913 15.58579661120005
1 39383U 13064D   16009.92401711 +.00038611 +00000-0 +48927-3 0  9993
2 39383 040.4956 280.3388 0007331 299.6687 060.3405 15.58644493118231
1 39383U 13064D   16010.18029900  .00039475  00000-0  49967-3 0  9993
2 39383  40.4955 278.7611 0007289 301.2341  58.7766 15.58666845120160
1 39383U 13064D   16010.88505679 +.00037856 +00000-0 +47843-3 0  9994
2 39383 040.4953 274.4214 0007191 305.1811 054.8337 15.58722549118383
1 39383U 13064D   16011.78198314  .00040086  00000-0  50482-3 0  9990
2 39383  40.4949 268.8979 0007082 310.3290  49.6913 15.58798178120411
1 39383U 13064D   16011.91011157 +.00042776 +00000-0 +53800-3 0  9999
2 39383 040.4948 268.1088 0007053 310.9892 049.0319 15.58811738118549
1 39383U 13064D   16012.74292115  .00045885  00000-0  57481-3 0  9999
2 39383  40.4946 262.9789 0006939 315.7427  44.2840 15.58895141120567
1 39383U 13064D   16012.93510182 +.00043130 +00000-0 +54037-3 0  9992
2 39383 040.4945 261.7954 0006910 316.8155 043.2124 15.58911837118704
1 39383U 13064D   16013.89597227 +.00041400 +00000-0 +51725-3 0  9992
2 39383 040.4943 255.8755 0006711 322.4812 037.5541 15.59000251118852
1 39383U 13064D   16014.08814019  .00040766  00000-0  50911-3 0  9995
2 39383  40.4942 254.6918 0006681 323.7261  36.3107 15.59016982120774
1 39383U 13064D   16015.56136537 +.00036990 +00000-0 +46056-3 0  9990
2 39383 040.4941 245.6142 0006418 332.3389 027.7091 15.59130658119116
1 39383U 13064D   16015.81756779  .00035460  00000-0  44144-3 0  9991
2 39383  40.4941 244.0354 0006364 333.9459  26.1042 15.59149038121045
1 39383U 13064D   16015.88161781 +.00035739 +00000-0 +44479-3 0  9991
2 39383 040.4941 243.6408 0006354 334.3936 025.6571 15.59154227119161
1 39383U 13064D   16016.65020493 +.00036329 +00000-0 +45112-3 0  9992
2 39383 040.4940 238.9042 0006187 339.3295 020.7276 15.59208916119284
1 39383U 13064D   16016.97044240  .00033613  00000-0  41751-3 0  9991
2 39383  40.4941 236.9308 0006123 341.5994  18.4606 15.59228012121226
1 39383U 13064D   16017.93112739 +.00034865 +00000-0 +43180-3 0  9995
2 39383 040.4940 231.0101 0005922 347.7860 012.2818 15.59293989119485
1 39383U 13064D   16018.63560354  .00033793  00000-0  41795-3 0  9992
2 39383  40.4939 226.6677 0005792 352.2992   7.7740 15.59341935121484
